OBJECT_NAME,OBJECT_ID,EPOCH,MEAN_MOTION,ECCENTRICITY,INCLINATION,RA_OF_ASC_NODE,ARG_OF_PERICENTER,MEAN_ANOMALY,EPHEMERIS_TYPE,CLASSIFICATION_TYPE,NORAD_CAT_ID,ELEMENT_SET_NO,REV_AT_EPOCH,BSTAR,MEAN_MOTION_DOT,MEAN_MOTION_DDOT
STARLINK-5684,2023-015E,2026-06-16T14:47:17.325600,15.27577556,.0001454,43.0071,129.8606,273.2628,86.8057,0,U,55453,999,18585,.14509E-4,.137E-5,0
STARLINK-5636,2023-015F,2026-06-17T03:35:20.192064,15.27582444,.0001415,43.0045,126.9739,268.8782,91.1908,0,U,55454,999,18593,.47438E-4,.1043E-4,0
STARLINK-5680,2023-015G,2026-06-17T04:25:18.373152,15.27575576,.0000646,43.0024,127.2415,245.0196,115.0589,0,U,55455,999,18593,.85572E-5,-.26E-6,0
STARLINK-5058,2023-015H,2026-06-16T14:58:23.441952,15.27577146,.00018,43.0030,129.9193,267.0537,93.0109,0,U,55456,999,18585,.25055E-4,.427E-5,0
STARLINK-5682,2023-015J,2026-06-16T14:52:50.422656,15.27576251,.0001407,43.0056,129.8912,278.6022,81.4670,0,U,55457,999,18585,.12448E-4,.8E-6,0
STARLINK-5020,2023-015K,2026-06-17T03:57:32.882688,15.27589807,.0001387,43.0056,127.0949,267.1761,92.8932,0,U,55458,999,18593,.92985E-4,.2298E-4,0
STARLINK-5669,2023-015L,2026-06-17T03:46:26.764608,15.27576278,.000154,43.0046,127.0407,265.2319,94.8357,0,U,55459,999,18593,.45487E-5,-.137E-5,0
STARLINK-5678,2023-015M,2026-06-17T03:51:59.865984,15.27575111,.0001412,42.9998,127.0652,260.3774,99.6918,0,U,55460,999,18593,.5282E-5,-.117E-5,0
STARLINK-5646,2023-015N,2026-06-17T03:40:53.594112,15.27578073,.0001521,43.0050,127.0123,258.6698,101.3983,0,U,55461,999,18593,.24208E-4,.404E-5,0
STARLINK-5673,2023-015P,2026-06-16T14:43:35.327712,15.27576609,.0000913,43.0017,129.8354,280.0450,80.0299,0,U,55462,999,18585,.13783E-4,.117E-5,0
STARLINK-5677,2023-015Q,2026-06-17T04:31:50.293056,15.17765221,.0003181,43.0023,134.9536,143.1714,216.9353,0,U,55463,999,18584,.97037E-3,.19783E-3,0
STARLINK-5676,2023-015R,2026-06-17T03:37:11.635104,15.27574046,.0002238,43.0032,126.9877,283.8610,76.1992,0,U,55464,999,18593,.26176E-4,.458E-5,0
STARLINK-5674,2023-015S,2026-06-16T14:49:08.645952,15.27576993,.0000658,43.0013,129.8662,270.4520,89.6256,0,U,55465,999,18585,.1448E-4,.137E-5,0
STARLINK-5628,2023-015T,2026-06-17T03:53:52.057248,15.27573349,.0001323,43.0061,127.0732,258.5352,101.5351,0,U,55466,999,18593,.14399E-4,.134E-5,0
STARLINK-5679,2023-015U,2026-06-16T14:38:03.778080,15.27574845,.0000134,42.9949,129.8070,197.5727,162.5120,0,U,55467,999,18585,.31155E-4,.596E-5,0
STARLINK-5672,2023-015V,2026-06-17T03:42:44.534304,15.27577457,.0001416,43.0028,127.0144,258.3728,101.6965,0,U,55468,999,18593,.18456E-4,.246E-5,0
STARLINK-5681,2023-015W,2026-06-16T14:54:41.101056,15.27578320,.0001751,43.0091,129.8945,275.1278,84.9374,0,U,55469,999,18585,.14591E-4,.139E-5,0
STARLINK-5708,2023-015X,2026-06-17T03:48:17.564832,15.27581137,.000169,43.0075,127.0467,275.1027,84.9631,0,U,55470,999,18593,.30721E-4,.583E-5,0
STARLINK-5711,2023-015Y,2026-06-16T14:41:44.193120,15.27577991,.0000983,43.0062,129.8201,301.7154,58.3602,0,U,55471,999,18585,-.96048E-5,-.526E-5,0
STARLINK-5705,2023-015Z,2026-06-17T03:51:30.900384,15.27576588,.0001029,43.0005,120.0265,263.1475,96.9260,0,U,55472,999,18601,.17093E-4,.208E-5,0
STARLINK-5689,2023-015AB,2026-06-16T15:13:10.445088,15.27575056,.0000922,42.9990,141.2762,266.5744,93.5002,0,U,55474,999,18572,-.37708E-6,-.272E-5,0
STARLINK-5650,2023-015AC,2026-06-17T03:59:23.841024,15.27575200,.0001374,43.0021,127.0978,263.8907,96.1788,0,U,55475,999,18593,.6282E-5,-.89E-6,0
STARLINK-5685,2023-015AE,2026-06-14T15:10:39.599328,15.27574673,.00007983,43.0032,133.7355,275.3705,84.7056,0,U,55477,999,18563,-.7296429E-5,-.463E-5,0
STARLINK-5691,2023-015AF,2026-06-17T03:24:27.821088,15.27579286,.0001191,43.0020,116.4683,260.1907,99.8810,0,U,55478,999,18605,.26235E-4,.46E-5,0
STARLINK-5688,2023-015AG,2026-06-17T03:31:09.621696,15.27578208,.0001432,43.0060,119.9194,267.8250,92.2438,0,U,55479,999,18601,.26956E-4,.48E-5,0
STARLINK-5690,2023-015AH,2026-06-17T04:32:27.095136,15.27580854,.0001372,43.0051,137.6276,262.8900,97.1796,0,U,55480,999,18581,.35076E-4,.703E-5,0
STARLINK-5694,2023-015AJ,2026-06-17T04:58:23.764800,15.27582329,.0000515,43.0032,137.8481,234.0418,126.0385,0,U,55481,999,18581,.67588E-4,.1599E-4,0
STARLINK-5692,2023-015AL,2026-06-16T04:54:36.598464,15.27557817,.00018044,43.0081,143.2244,269.6089,90.4556,0,U,55483,999,18566,-.64980908E-4,-.2049E-4,0
STARLINK-5696,2023-015AM,2026-06-17T05:13:10.997760,15.27574052,.0000864,43.0009,137.9149,268.3316,91.7437,0,U,55484,999,18581,-.26684E-5,-.335E-5,0
STARLINK-5695,2023-015AN,2026-06-17T05:09:28.940256,15.27575068,.0000648,43.0000,137.8972,260.1218,99.9561,0,U,55485,999,18581,.57204E-5,-.104E-5,0
STARLINK-5704,2023-015AP,2026-06-17T05:03:55.401696,15.27575789,.0001072,43.0026,137.8211,278.9863,81.0867,0,U,55486,999,18581,.61705E-5,-.92E-6,0
STARLINK-5701,2023-015AQ,2026-06-17T04:47:17.461824,15.27573888,.000128,43.0050,137.7871,263.6119,96.4587,0,U,55487,999,18581,.13785E-4,.117E-5,0
STARLINK-5706,2023-015AR,2026-06-17T04:43:35.524416,15.27579263,.0001688,43.0010,137.7577,274.5356,85.5303,0,U,55488,999,18581,.54131E-4,.1228E-4,0
STARLINK-5371,2023-015AS,2026-06-17T04:52:49.770048,15.27575923,.0001139,43.0031,137.8151,266.0600,94.0122,0,U,55489,999,18581,.72142E-5,-.64E-6,0
STARLINK-5373,2023-015AT,2026-06-16T15:42:33.787872,15.27576482,.0001768,43.0047,140.5650,270.7912,89.2737,0,U,55490,999,18573,.36257E-4,.735E-5,0
STARLINK-5364,2023-015AU,2026-06-17T03:10:48.315360,15.27580727,.0001425,42.9979,119.7987,257.4306,102.6386,0,U,55491,999,18601,.51303E-4,.115E-4,0
STARLINK-5013,2023-015AV,2026-06-17T04:50:59.731008,15.27577516,.0001459,42.9987,137.7879,263.9665,96.1020,0,U,55492,999,18581,.37561E-4,.772E-5,0
STARLINK-5362,2023-015AW,2026-06-17T04:23:13.463808,15.27574019,.000145,43.0023,137.6560,265.4891,94.5795,0,U,55493,999,18581,.27352E-5,-.187E-5,0
STARLINK-5344,2023-015AX,2026-06-17T04:54:40.808736,15.27574315,.0001152,43.0015,137.8150,272.8781,87.1939,0,U,55494,999,18581,.40718E-5,-.15E-5,0
STARLINK-5100,2023-015AY,2026-06-17T03:20:03.787008,15.27574724,.0001434,43.0041,119.8666,266.8725,93.1962,0,U,55495,999,18601,.12553E-4,.83E-6,0
STARLINK-5363,2023-015BA,2026-06-16T14:52:49.500768,15.27576373,.0000822,43.0017,141.1646,255.0581,105.0179,0,U,55497,999,18572,.93034E-5,-.6E-7,0
STARLINK-5365,2023-015BB,2026-06-17T05:15:01.812672,15.27574777,.0000837,43.0008,137.9144,267.1515,92.9241,0,U,55498,999,18581,.51692E-5,-.12E-5,0
STARLINK-5366,2023-015BC,2026-06-16T15:35:08.943648,15.27582752,.0001438,42.9945,140.5293,275.9117,84.1570,0,U,55499,999,18648,.41247E-4,.873E-5,0
STARLINK-5141,2023-015BD,2026-06-17T05:05:46.372992,15.27582906,.0000645,43.0028,137.8706,241.3291,118.7496,0,U,55500,999,18581,.22202E-5,-.201E-5,0
STARLINK-5367,2023-015BE,2026-06-17T05:26:07.751040,15.27576430,.0000863,43.0034,137.9649,275.0214,85.0539,0,U,55501,999,18581,.16314E-5,-.217E-5,0
ELEKTRO-L 4,2023-016A,2026-06-15T19:20:26.001600,1.00270697,.0000776,0.0734,164.8322,9.0006,186.1645,0,U,55506,999,1232,0,-.57E-6,0
AMAZONAS NEXUS,2023-017A,2026-06-15T12:46:16.334400,1.00267577,.00049166,0.0383,35.9590,30.4729,327.9525,0,U,55508,999,702,0,-.28E-5,0
STARLINK-5749,2023-020A,2026-06-16T17:02:20.722848,15.27574692,.0001016,43.0000,169.6591,269.1948,90.8787,0,U,55569,999,18508,.17012E-4,.206E-5,0
STARLINK-5737,2023-020B,2026-06-16T16:42:44.689248,15.27562716,.0000783,42.9981,166.1473,306.6724,53.4055,0,U,55570,999,18405,.1865E-3,.4871E-4,0
STARLINK-5739,2023-020C,2026-06-16T16:32:44.503008,15.27575495,.0001073,43.0009,169.5052,277.7228,82.3502,0,U,55571,999,18401,.29303E-4,.544E-5,0
STARLINK-5732,2023-020D,2026-06-16T07:04:06.388032,15.27574772,.0001169,43.0018,171.7015,268.5154,91.5564,0,U,55572,999,18395,.44E-4,.949E-5,0
STARLINK-5738,2023-020E,2026-06-16T06:58:32.941920,15.27578631,.0000988,43.0025,171.6724,253.6093,106.4650,0,U,55573,999,18395,.17064E-4,.208E-5,0
STARLINK-5747,2023-020F,2026-06-16T17:13:26.909184,15.27576635,.0001129,43.0015,169.7169,305.0092,55.0654,0,U,55574,999,18401,.10868E-4,.37E-6,0
STARLINK-5745,2023-020G,2026-06-17T03:41:05.144064,15.27576250,.0001254,43.0023,166.9640,269.1855,90.8853,0,U,55575,999,18408,.40626E-4,.856E-5,0
STARLINK-5751,2023-020H,2026-06-16T15:22:14.734848,15.27579064,.0000648,43.0000,140.5924,285.6109,74.4671,0,U,55576,999,18434,.25651E-4,.444E-5,0
STARLINK-5752,2023-020J,2026-06-16T16:59:20.050080,15.27576722,.0001195,43.0026,166.1472,284.3400,75.7318,0,U,55577,999,18405,.8897E-5,-.17E-6,0
STARLINK-5754,2023-020L,2026-06-16T07:04:48.687744,15.27575266,.0001066,43.0003,168.2914,265.7424,94.3306,0,U,55579,999,18399,.52684E-5,-.117E-5,0
STARLINK-5757,2023-020M,2026-06-15T16:04:42.005568,15.27577943,.00012671,43.0013,146.2068,259.2788,100.7921,0,U,55580,999,18419,.22706084E-4,.363E-5,0
STARLINK-5753,2023-020N,2026-06-16T07:16:20.756064,15.27576895,.0001157,43.0010,175.1720,268.9109,91.1610,0,U,55581,999,18391,.19915E-4,.286E-5,0
STARLINK-5741,2023-020P,2026-06-16T06:05:50.358912,15.27573427,.0001405,43.0017,157.5798,271.0399,89.0292,0,U,55582,999,18411,-.17291E-5,-.31E-5,0
STARLINK-5742,2023-020Q,2026-06-14T07:26:48.537600,15.27575749,.00014115,43.0011,179.2005,270.7341,89.3349,0,U,55583,999,18369,.459939E-6,-.249E-5,0
STARLINK-5736,2023-020R,2026-06-16T17:21:35.421696,15.27572858,.0000436,43.0000,166.3494,291.1405,68.9400,0,U,55584,999,18405,.33506E-4,.66E-5,0
STARLINK-5769,2023-020S,2026-06-16T16:05:56.013216,15.27575606,.0000705,43.0018,155.5534,273.5639,86.5132,0,U,55585,999,18417,.5687E-5,-.105E-5,0
STARLINK-5767,2023-020T,2026-06-16T16:57:30.375648,15.27574840,.0001203,43.0025,166.2199,271.9930,88.0784,0,U,55586,999,18405,-.73763E-6,-.282E-5,0
STARLINK-5727,2023-020U,2026-06-16T16:48:14.122080,15.27567284,.000066,42.9985,166.0996,296.6543,63.4241,0,U,55587,999,18405,.85278E-4,.2085E-4,0
STARLINK-5728,2023-020V,2026-06-16T16:51:57.370176,15.27571687,.0001181,43.0029,166.1964,266.0143,94.0573,0,U,55588,999,18405,.84942E-5,-.28E-6,0
